{"type": "FeatureCollection", "features": [ {"type": "Feature", "properties": {"norad_id": 36442, "name": "COSMOS 2251 DEB", "group": "cosmos-2251-debris", "lat": -73.16659568408261, "lon": -59.50601652177461, "alt_km": 467.39838994632555, "timestamp": "2025-12-25T03:55:56.764628+00:00", "meta": {"OBJECT_NAME": "COSMOS 2251 DEB", "OBJECT_ID": "1993-036BAR", "EPOCH": "2025-12-21T18:51:31.867200", "MEAN_MOTION": 15.32486394, "ECCENTRICITY": 0.00080169, "INCLINATION": 73.9482, "RA_OF_ASC_NODE": 19.8637, "ARG_OF_PERICENTER": 316.0651, "MEAN_ANOMALY": 43.9914, "EPHEMERIS_TYPE": 0, "CLASSIFICATION_TYPE": "U", "NORAD_CAT_ID": 36442, "ELEMENT_SET_NO": 999, "REV_AT_EPOCH": 86054, "BSTAR": 0.0050536247, "MEAN_MOTION_DOT": 0.00162161, "MEAN_MOTION_DDOT": 0}, "tle": {"line1": "1 36442U 93036BAR 25355.78578550  .00162161  00000+0  50536-2 0  9992", "line2": "2 36442  73.9482  19.8637 0008016 316.0651  43.9914 15.32486394860543"}}, "geometry": {"type": "Point", "coordinates": [-59.50601652177461, -73.16659568408261]}}, {"type": "Feature", "properties": {"norad_id": 36451, "name": "COSMOS 2251 DEB", "group": "cosmos-2251-debris", "lat": 30.439096185421864, "lon": 123.19008575672014, "alt_km": 698.8382699608419, "timestamp": "2025-12-25T03:55:56.764638+00:00", "meta": {"OBJECT_NAME": "COSMOS 2251 DEB", "OBJECT_ID": "1993-036BBA", "EPOCH": "2025-12-17T15:51:47.903904", "MEAN_MOTION": 14.18761243, "ECCENTRICITY": 0.01833733, "INCLINATION": 73.9538, "RA_OF_ASC_NODE": 326.3887, "ARG_OF_PERICENTER": 149.6881, "MEAN_ANOMALY": 211.5024, "EPHEMERIS_TYPE": 0, "CLASSIFICATION_TYPE": "U", "NORAD_CAT_ID": 36451, "ELEMENT_SET_NO": 999, "REV_AT_EPOCH": 84295, "BSTAR": 0.0004725236, "MEAN_MOTION_DOT": 1.135e-05, "MEAN_MOTION_DDOT": 0}, "tle": {"line1": "1 36451U 93036BBA 25351.66097111  .00001135  00000+0  47252-3 0  9999", "line2": "2 36451  73.9538 326.3887 0183373 149.6881 211.5024 14.18761243842955"}}, "geometry": {"type": "Point", "coordinates": [123.19008575672014, 30.439096185421864]}}, {"type": "Feature", "properties": {"norad_id": 36453, "name": "COSMOS 2251 DEB", "group": "cosmos-2251-debris", "lat": 59.06939448127885, "lon": -79.96979569400541, "alt_km": 708.7610783696964, "timestamp": "2025-12-25T03:55:56.764648+00:00", "meta": {"OBJECT_NAME": "COSMOS 2251 DEB", "OBJECT_ID": "1993-036BBC", "EPOCH": "2025-12-24T15:52:54.435360", "MEAN_MOTION": 14.52685081, "ECCENTRICITY": 0.0070668, "INCLINATION": 73.9241, "RA_OF_ASC_NODE": 129.7501, "ARG_OF_PERICENTER": 29.7309, "MEAN_ANOMALY": 341.3832, "EPHEMERIS_TYPE": 0, "CLASSIFICATION_TYPE": "U", "NORAD_CAT_ID": 36453, "ELEMENT_SET_NO": 999, "REV_AT_EPOCH": 84641, "BSTAR": 0.00085703, "MEAN_MOTION_DOT": 3.602e-05, "MEAN_MOTION_DDOT": 0}, "tle": {"line1": "1 36453U 93036BBC 25358.66174115  .00003602  00000+0  85703-3 0  9992", "line2": "2 36453  73.9241 129.7501 0070668  29.7309 341.3832 14.52685081846418"}}, "geometry": {"type": "Point", "coordinates": [-79.96979569400541, 59.06939448127885]}}, {"type": "Feature", "properties": {"norad_id": 36459, "name": "COSMOS 2251 DEB", "group": "cosmos-2251-debris", "lat": -54.480157999075196, "lon": -46.27337964813144, "alt_km": 859.3263182629344, "timestamp": "2025-12-25T03:55:56.764658+00:00", "meta": {"OBJECT_NAME": "COSMOS 2251 DEB", "OBJECT_ID": "1993-036BBJ", "EPOCH": "2025-12-20T06:23:01.272480", "MEAN_MOTION": 14.26454896, "ECCENTRICITY": 0.0113312, "INCLINATION": 74.0464, "RA_OF_ASC_NODE": 346.1968, "ARG_OF_PERICENTER": 79.9168, "MEAN_ANOMALY": 281.4741, "EPHEMERIS_TYPE": 0, "CLASSIFICATION_TYPE": "U", "NORAD_CAT_ID": 36459, "ELEMENT_SET_NO": 999, "REV_AT_EPOCH": 7989, "BSTAR": 0.00092616994, "MEAN_MOTION_DOT": 2.362e-05, "MEAN_MOTION_DDOT": 0}, "tle": {"line1": "1 36459U 93036BBJ 25354.26598695  .00002362  00000+0  92617-3 0  9997", "line2": "2 36459  74.0464 346.1968 0113312  79.9168 281.4741 14.26454896 79891"}}, "geometry": {"type": "Point", "coordinates": [-46.27337964813144, -54.480157999075196]}}, {"type": "Feature", "properties": {"norad_id": 36470, "name": "COSMOS 2251 DEB", "group": "cosmos-2251-debris", "lat": 19.888283671822265, "lon": -125.42176312297369, "alt_km": 528.8364132122642, "timestamp": "2025-12-25T03:55:56.764669+00:00", "meta": {"OBJECT_NAME": "COSMOS 2251 DEB", "OBJECT_ID": "1993-036BBV", "EPOCH": "2025-12-15T00:13:00.014016", "MEAN_MOTION": 15.07582269, "ECCENTRICITY": 0.00222568, "INCLINATION": 73.8449, "RA_OF_ASC_NODE": 249.6845, "ARG_OF_PERICENTER": 78.1368, "MEAN_ANOMALY": 282.2316, "EPHEMERIS_TYPE": 0, "CLASSIFICATION_TYPE": "U", "NORAD_CAT_ID": 36470, "ELEMENT_SET_NO": 999, "REV_AT_EPOCH": 66128, "BSTAR": 0.0018721064, "MEAN_MOTION_DOT": 0.0002872, "MEAN_MOTION_DDOT": 0}, "tle": {"line1": "1 36470U 93036BBV 25349.00902794  .00028720  00000+0  18721-2 0  9994", "line2": "2 36470  73.8449 249.6845 0022256  78.1368 282.2316 15.07582269661287"}}, "geometry": {"type": "Point", "coordinates": [-125.42176312297369, 19.888283671822265]}}, {"type": "Feature", "properties": {"norad_id": 36528, "name": "COSMOS 2251 DEB", "group": "cosmos-2251-debris", "lat": -62.037444382100595, "lon": -24.745130226658052, "alt_km": 782.3791963044059, "timestamp": "2025-12-25T03:55:56.764680+00:00", "meta": {"OBJECT_NAME": "COSMOS 2251 DEB", "OBJECT_ID": "1993-036BCN", "EPOCH": "2025-12-23T02:07:16.025088", "MEAN_MOTION": 14.30700517, "ECCENTRICITY": 0.00843039, "INCLINATION": 74.0164, "RA_OF_ASC_NODE": 126.3587, "ARG_OF_PERICENTER": 173.6908, "MEAN_ANOMALY": 186.5326, "EPHEMERIS_TYPE": 0, "CLASSIFICATION_TYPE": "U", "NORAD_CAT_ID": 36528, "ELEMENT_SET_NO": 999, "REV_AT_EPOCH": 64575, "BSTAR": 0.0012053089, "MEAN_MOTION_DOT": 3.253e-05, "MEAN_MOTION_DDOT": 0}, "tle": {"line1": "1 36528U 93036BCN 25357.08837992  .00003253  00000+0  12053-2 0  9998", "line2": "2 36528  74.0164 126.3587 0084303 173.6908 186.5326 14.30700517645758"}}, "geometry": {"type": "Point", "coordinates": [-24.745130226658052, -62.037444382100595]}}, {"type": "Feature", "properties": {"norad_id": 36533, "name": "COSMOS 2251 DEB", "group": "cosmos-2251-debris", "lat": 0.5433566063679095, "lon": -88.6841178062367, "alt_km": 710.4345989409785, "timestamp": "2025-12-25T03:55:56.764689+00:00", "meta": {"OBJECT_NAME": "COSMOS 2251 DEB", "OBJECT_ID": "1993-036BCT", "EPOCH": "2025-12-20T07:10:55.572384", "MEAN_MOTION": 14.49841548, "ECCENTRICITY": 0.00492519, "INCLINATION": 74.0124, "RA_OF_ASC_NODE": 100.614, "ARG_OF_PERICENTER": 248.4514, "MEAN_ANOMALY": 111.1393, "EPHEMERIS_TYPE": 0, "CLASSIFICATION_TYPE": "U", "NORAD_CAT_ID": 36533, "ELEMENT_SET_NO": 999, "REV_AT_EPOCH": 84594, "BSTAR": 0.00033689925, "MEAN_MOTION_DOT": 1.292e-05, "MEAN_MOTION_DDOT": 0}, "tle": {"line1": "1 36533U 93036BCT 25354.29925431  .00001292  00000+0  33690-3 0  9992", "line2": "2 36533  74.0124 100.6140 0049251 248.4514 111.1393 14.49841548845948"}}, "geometry": {"type": "Point", "coordinates": [-88.6841178062367, 0.5433566063679095]}}, {"type": "Feature", "properties": {"norad_id": 36539, "name": "COSMOS 2251 DEB", "group": "cosmos-2251-debris", "lat": 73.3747053307383, "lon": 105.11556116982325, "alt_km": 687.3752928728718, "timestamp": "2025-12-25T03:55:56.764699+00:00", "meta": {"OBJECT_NAME": "COSMOS 2251 DEB", "OBJECT_ID": "1993-036BCZ", "EPOCH": "2025-12-24T19:18:55.444032", "MEAN_MOTION": 14.59370787, "ECCENTRICITY": 0.0026386, "INCLINATION": 74.023, "RA_OF_ASC_NODE": 32.1628, "ARG_OF_PERICENTER": 174.9565, "MEAN_ANOMALY": 185.1871, "EPHEMERIS_TYPE": 0, "CLASSIFICATION_TYPE": "U", "NORAD_CAT_ID": 36539, "ELEMENT_SET_NO": 999, "REV_AT_EPOCH": 84123, "BSTAR": 0.00060617, "MEAN_MOTION_DOT": 2.854e-05, "MEAN_MOTION_DDOT": 0}, "tle": {"line1": "1 36539U 93036BCZ 25358.80480838  .00002854  00000+0  60617-3 0  9990", "line2": "2 36539  74.0230  32.1628 0026386 174.9565 185.1871 14.59370787841238"}}, "geometry": {"type": "Point", "coordinates": [105.11556116982325, 73.3747053307383]}}, {"type": "Feature", "properties": {"norad_id": 36540, "name": "COSMOS 2251 DEB", "group": "cosmos-2251-debris", "lat": 11.34276131085859, "lon": 160.14815578039492, "alt_km": 707.2667978014861, "timestamp": "2025-12-25T03:55:56.764709+00:00", "meta": {"OBJECT_NAME": "COSMOS 2251 DEB", "OBJECT_ID": "1993-036BDA", "EPOCH": "2025-12-23T20:36:08.955072", "MEAN_MOTION": 14.58585087, "ECCENTRICITY": 0.0014628, "INCLINATION": 74.0279, "RA_OF_ASC_NODE": 159.3401, "ARG_OF_PERICENTER": 229.2513, "MEAN_ANOMALY": 130.7383, "EPHEMERIS_TYPE": 0, "CLASSIFICATION_TYPE": "U", "NORAD_CAT_ID": 36540, "ELEMENT_SET_NO": 999, "REV_AT_EPOCH": 86172, "BSTAR": 0.0012603, "MEAN_MOTION_DOT": 5.848e-05, "MEAN_MOTION_DDOT": 0}, "tle": {"line1": "1 36540U 93036BDA 25357.85843698  .00005848  00000+0  12603-2 0  9990", "line2": "2 36540  74.0279 159.3401 0014628 229.2513 130.7383 14.58585087861727"}}, "geometry": {"type": "Point", "coordinates": [160.14815578039492, 11.34276131085859]}}, {"type": "Feature", "properties": {"norad_id": 36550, "name": "COSMOS 2251 DEB", "group": "cosmos-2251-debris", "lat": -66.64242196015304, "lon": 31.75699668624967, "alt_km": 761.6966820343005, "timestamp": "2025-12-25T03:55:56.764720+00:00", "meta": {"OBJECT_NAME": "COSMOS 2251 DEB", "OBJECT_ID": "1993-036BDL", "EPOCH": "2025-12-23T05:19:51.847104", "MEAN_MOTION": 14.27229725, "ECCENTRICITY": 0.00778519, "INCLINATION": 74.0443, "RA_OF_ASC_NODE": 173.7801, "ARG_OF_PERICENTER": 222.1192, "MEAN_ANOMALY": 137.3958, "EPHEMERIS_TYPE": 0, "CLASSIFICATION_TYPE": "U", "NORAD_CAT_ID": 36550, "ELEMENT_SET_NO": 999, "REV_AT_EPOCH": 84745, "BSTAR": 0.00062346046, "MEAN_MOTION_DOT": 1.548e-05, "MEAN_MOTION_DDOT": 0}, "tle": {"line1": "1 36550U 93036BDL 25357.22212786  .00001548  00000+0  62346-3 0  9993", "line2": "2 36550  74.0443 173.7801 0077851 222.1192 137.3958 14.27229725847452"}}, "geometry": {"type": "Point", "coordinates": [31.75699668624967, -66.64242196015304]}}]}